ORBCOMM-X [-]           
1 21576U 91050C   23297.45620939  .00000491  00000+0  16214-3 0  9997
2 21576  98.4217   3.1750 0003476 184.6677 175.4481 14.42223651695357
ORBCOMM FM01 [-]        
1 23545U 95017A   23298.58957474  .00004681  00000+0  67420-3 0  9994
2 23545  69.9662 114.8307 0004509 181.8646 178.2485 14.76952981523822
ORBCOMM FM02 [-]        
1 23546U 95017B   23298.90183569  .00003761  00000+0  54988-3 0  9990
2 23546  69.9684 133.1352 0005970 162.7933 197.3418 14.76484191523473
ORBCOMM FM08 [-]        
1 25112U 97084A   23298.59304074  .00001631  00000+0  54172-3 0  9997
2 25112  45.0163   0.2642 0005627 107.6983 252.4481 14.41443548354769
ORBCOMM FM10 [-]        
1 25113U 97084B   23298.86729979  .00001524  00000+0  50996-3 0  9994
2 25113  45.0177   0.6817 0002958  68.7326 291.3839 14.41386220354790
ORBCOMM FM11 [+]        
1 25114U 97084C   23298.59305784  .00001543  00000+0  51690-3 0  9992
2 25114  45.0161   1.9077 0003730  68.3439 291.7807 14.41270418354741
ORBCOMM FM12 [-]        
1 25115U 97084D   23298.27207601  .00001507  00000+0  50609-3 0  9996
2 25115  45.0168   3.0808 0002777  69.2463 290.8684 14.41256701354709
ORBCOMM FM09 [-]        
1 25116U 97084E   23298.55635011  .00001413  00000+0  47735-3 0  9990
2 25116  45.0171   2.3603 0004039  45.8158 314.3023 14.41234018354743
